ACS3                    
1 59588U 24077B   24175.61201141  .00000076  00000+0  12340-3 0  9995
2 59588  97.4059 242.3001 0021552  78.4304 281.9265 13.67687504  8282
